{
    "links": {
        "self": "http://www.neowsapp.com/rest/v1/neo/3276440?api_key=iIulBulltgU6a56xZRHN4H3l9WmuAYTsLGpBGhQ2"
    },
    "id": "3276440",
    "neo_reference_id": "3276440",
    "name": "(2005 GG81)",
    "designation": "2005 GG81",
    "nasa_jpl_url": "http://ssd.jpl.nasa.gov/sbdb.cgi?sstr=3276440",
    "absolute_magnitude_h": 25.5,
    "estimated_diameter": {
        "kilometers": {
            "estimated_diameter_min": 0.0211132445,
            "estimated_diameter_max": 0.0472106499
        },
        "meters": {
            "estimated_diameter_min": 21.113244479,
            "estimated_diameter_max": 47.2106498806
        },
        "miles": {
            "estimated_diameter_min": 0.0131191578,
            "estimated_diameter_max": 0.0293353287
        },
        "feet": {
            "estimated_diameter_min": 69.2691770164,
            "estimated_diameter_max": 154.8905885541
        }
    },
    "is_potentially_hazardous_asteroid": false,
    "close_approach_data": [
        {
            "close_approach_date": "2002-02-27",
            "close_approach_date_full": "2002-Feb-27 05:00",
            "epoch_date_close_approach": 1014786000000,
            "relative_velocity": {
                "kilometers_per_second": "20.0285195798",
                "kilometers_per_hour": "72102.6704873545",
                "miles_per_hour": "44801.7954481009"
            },
            "miss_distance": {
                "astronomical": "0.4946321311",
                "lunar": "192.4118989979",
                "kilometers": "73995913.246120757",
                "miles": "45978928.4198981666"
            },
            "orbiting_body": "Earth"
        },
        {
            "close_approach_date": "2005-04-12",
            "close_approach_date_full": "2005-Apr-12 06:26",
            "epoch_date_close_approach": 1113287160000,
            "relative_velocity": {
                "kilometers_per_second": "6.3076467038",
                "kilometers_per_hour": "22707.528133839",
                "miles_per_hour": "14109.574911829"
            },
            "miss_distance": {
                "astronomical": "0.0561861726",
                "lunar": "21.8564211414",
                "kilometers": "8405331.744412362",
                "miles": "5222830.9600881156"
            },
            "orbiting_body": "Earth"
        },
        {
            "close_approach_date": "2008-06-05",
            "close_approach_date_full": "2008-Jun-05 22:55",
            "epoch_date_close_approach": 1212706500000,
            "relative_velocity": {
                "kilometers_per_second": "17.7873019261",
                "kilometers_per_hour": "64034.2869340435",
                "miles_per_hour": "39788.415678545"
            },
            "miss_distance": {
                "astronomical": "0.4185058958",
                "lunar": "162.7987934662",
                "kilometers": "62607590.594121946",
                "miles": "38902552.8598410148"
            },
            "orbiting_body": "Earth"
        }
    ],
    "orbital_data": {
        "orbit_id": "6",
        "orbit_determination_date": "2017-04-06 09:11:07",
        "first_observation_date": "2005-04-09",
        "last_observation_date": "2005-04-11",
        "data_arc_in_days": 2,
        "observations_used": 21,
        "orbit_uncertainty": "8",
        "minimum_orbit_intersection": ".0531104",
        "jupiter_tisserand_invariant": "3.561",
        "epoch_osculation": "2453471.5",
        "eccentricity": ".50068375022152",
        "semi_major_axis": "2.115932058949418",
        "inclination": "3.642137474711112",
        "ascending_node_longitude": "21.46264475746646",
        "orbital_period": "1124.219217602239",
        "perihelion_distance": "1.056519260460681",
        "perihelion_argument": "184.5593147088452",
        "aphelion_distance": "3.175344857438155",
        "perihelion_time": "2453475.352685159621",
        "mean_anomaly": "358.766284514846",
        "mean_motion": ".3202222434587235",
        "equinox": "J2000",
        "orbit_class": {
            "orbit_class_type": "AMO",
            "orbit_class_description": "Near-Earth asteroid orbits similar to that of 1221 Amor",
            "orbit_class_range": "1.017 AU < q (perihelion) < 1.3 AU"
        }
    },
    "is_sentry_object": false
}